[{"OBJECT_NAME":"FENGYUN 1C DEB","OBJECT_ID":"1999-025CTP","EPOCH":"2026-04-25T12:18:27.471744","MEAN_MOTION":14.75466043,"ECCENTRICITY":0.0031945,"INCLINATION":98.5556,"RA_OF_ASC_NODE":316.0488,"ARG_OF_PERICENTER":63.6004,"MEAN_ANOMALY":296.8476,"EPHEMERIS_TYPE":0,"CLASSIFICATION_TYPE":"U","NORAD_CAT_ID":32169,"ELEMENT_SET_NO":999,"REV_AT_EPOCH":98586,"BSTAR":0.0032304,"MEAN_MOTION_DOT":0.00022158,"MEAN_MOTION_DDOT":0},{"OBJECT_NAME":"FENGYUN 1C DEB","OBJECT_ID":"1999-025CTR","EPOCH":"2026-04-21T01:37:43.425408","MEAN_MOTION":13.43590359,"ECCENTRICITY":0.04827183,"INCLINATION":102.8054,"RA_OF_ASC_NODE":48.1929,"ARG_OF_PERICENTER":85.5203,"MEAN_ANOMALY":297.7627,"EPHEMERIS_TYPE":0,"CLASSIFICATION_TYPE":"U","NORAD_CAT_ID":32171,"ELEMENT_SET_NO":999,"REV_AT_EPOCH":62352,"BSTAR":0.0032876855,"MEAN_MOTION_DOT":3.746e-5,"MEAN_MOTION_DDOT":0},{"OBJECT_NAME":"FENGYUN 1C DEB","OBJECT_ID":"1999-025CTU","EPOCH":"2026-04-22T21:13:40.505376","MEAN_MOTION":14.18088294,"ECCENTRICITY":0.01497224,"INCLINATION":98.5786,"RA_OF_ASC_NODE":175.8525,"ARG_OF_PERICENTER":227.611,"MEAN_ANOMALY":131.2315,"EPHEMERIS_TYPE":0,"CLASSIFICATION_TYPE":"U","NORAD_CAT_ID":32174,"ELEMENT_SET_NO":999,"REV_AT_EPOCH":65964,"BSTAR":0.00018710291,"MEAN_MOTION_DOT":3.86e-6,"MEAN_MOTION_DDOT":0},{"OBJECT_NAME":"FENGYUN 1C DEB","OBJECT_ID":"1999-025CTV","EPOCH":"2026-04-25T16:24:22.114656","MEAN_MOTION":13.95785964,"ECCENTRICITY":0.0148182,"INCLINATION":98.8357,"RA_OF_ASC_NODE":103.64,"ARG_OF_PERICENTER":314.709,"MEAN_ANOMALY":44.2082,"EPHEMERIS_TYPE":0,"CLASSIFICATION_TYPE":"U","NORAD_CAT_ID":32175,"ELEMENT_SET_NO":999,"REV_AT_EPOCH":61708,"BSTAR":0.0021132,"MEAN_MOTION_DOT":3.12e-5,"MEAN_MOTION_DDOT":0},{"OBJECT_NAME":"FENGYUN 1C DEB","OBJECT_ID":"1999-025CTX","EPOCH":"2026-04-25T08:01:40.865664","MEAN_MOTION":14.57911936,"ECCENTRICITY":0.0049069,"INCLINATION":99.0347,"RA_OF_ASC_NODE":140.9721,"ARG_OF_PERICENTER":1.9776,"MEAN_ANOMALY":358.1606,"EPHEMERIS_TYPE":0,"CLASSIFICATION_TYPE":"U","NORAD_CAT_ID":32177,"ELEMENT_SET_NO":999,"REV_AT_EPOCH":72984,"BSTAR":0.0010435,"MEAN_MOTION_DOT":4.811e-5,"MEAN_MOTION_DDOT":0},{"OBJECT_NAME":"FENGYUN 1C DEB","OBJECT_ID":"1999-025CTY","EPOCH":"2026-04-19T07:41:04.244928","MEAN_MOTION":14.23667142,"ECCENTRICITY":0.00925169,"INCLINATION":100.2972,"RA_OF_ASC_NODE":137.3385,"ARG_OF_PERICENTER":332.7877,"MEAN_ANOMALY":26.8464,"EPHEMERIS_TYPE":0,"CLASSIFICATION_TYPE":"U","NORAD_CAT_ID":32178,"ELEMENT_SET_NO":999,"REV_AT_EPOCH":65818,"BSTAR":0.00058961991,"MEAN_MOTION_DOT":1.348e-5,"MEAN_MOTION_DDOT":0},{"OBJECT_NAME":"FENGYUN 1C DEB","OBJECT_ID":"1999-025CTZ","EPOCH":"2026-04-25T14:57:10.987776","MEAN_MOTION":14.03771626,"ECCENTRICITY":0.014544,"INCLINATION":98.8847,"RA_OF_ASC_NODE":166.6699,"ARG_OF_PERICENTER":176.2355,"MEAN_ANOMALY":336.2717,"EPHEMERIS_TYPE":0,"CLASSIFICATION_TYPE":"U","NORAD_CAT_ID":32179,"ELEMENT_SET_NO":999,"REV_AT_EPOCH":67606,"BSTAR":1.5504e-5,"MEAN_MOTION_DOT":-1.6e-7,"MEAN_MOTION_DDOT":0},{"OBJECT_NAME":"FENGYUN 1C DEB","OBJECT_ID":"1999-025CUA","EPOCH":"2026-04-25T14:36:30.981888","MEAN_MOTION":13.82361592,"ECCENTRICITY":0.0136104,"INCLINATION":99.5623,"RA_OF_ASC_NODE":162.8701,"ARG_OF_PERICENTER":217.7044,"MEAN_ANOMALY":297.8899,"EPHEMERIS_TYPE":0,"CLASSIFICATION_TYPE":"U","NORAD_CAT_ID":32180,"ELEMENT_SET_NO":999,"REV_AT_EPOCH":96117,"BSTAR":7.2414e-5,"MEAN_MOTION_DOT":3.7e-7,"MEAN_MOTION_DDOT":0},{"OBJECT_NAME":"FENGYUN 1C DEB","OBJECT_ID":"1999-025CUB","EPOCH":"2026-04-23T07:14:19.776192","MEAN_MOTION":14.57412384,"ECCENTRICITY":0.00717624,"INCLINATION":99.4781,"RA_OF_ASC_NODE":239.932,"ARG_OF_PERICENTER":53.6605,"MEAN_ANOMALY":337.1531,"EPHEMERIS_TYPE":0,"CLASSIFICATION_TYPE":"U","NORAD_CAT_ID":32181,"ELEMENT_SET_NO":999,"REV_AT_EPOCH":98636,"BSTAR":0.00050376409,"MEAN_MOTION_DOT":2.306e-5,"MEAN_MOTION_DDOT":0},{"OBJECT_NAME":"FENGYUN 1C DEB","OBJECT_ID":"1999-025CUD","EPOCH":"2026-04-25T02:40:12.475200","MEAN_MOTION":14.10422483,"ECCENTRICITY":0.00428088,"INCLINATION":98.6921,"RA_OF_ASC_NODE":167.0424,"ARG_OF_PERICENTER":43.8204,"MEAN_ANOMALY":316.6351,"EPHEMERIS_TYPE":0,"CLASSIFICATION_TYPE":"U","NORAD_CAT_ID":32183,"ELEMENT_SET_NO":999,"REV_AT_EPOCH":74644,"BSTAR":0.000453255,"MEAN_MOTION_DOT":7.7e-6,"MEAN_MOTION_DDOT":0},{"OBJECT_NAME":"FENGYUN 1C DEB","OBJECT_ID":"1999-025CUF","EPOCH":"2026-04-25T02:22:52.658976","MEAN_MOTION":15.24758215,"ECCENTRICITY":0.01070828,"INCLINATION":98.8868,"RA_OF_ASC_NODE":348.7095,"ARG_OF_PERICENTER":291.0792,"MEAN_ANOMALY":67.9018,"EPHEMERIS_TYPE":0,"CLASSIFICATION_TYPE":"U","NORAD_CAT_ID":32185,"ELEMENT_SET_NO":999,"REV_AT_EPOCH":97033,"BSTAR":0.002221357,"MEAN_MOTION_DOT":0.0006522,"MEAN_MOTION_DDOT":0},{"OBJECT_NAME":"FENGYUN 1C DEB","OBJECT_ID":"1999-025CUG","EPOCH":"2026-04-22T22:47:01.826880","MEAN_MOTION":13.76821553,"ECCENTRICITY":0.02729529,"INCLINATION":99.5924,"RA_OF_ASC_NODE":169.7639,"ARG_OF_PERICENTER":217.784,"MEAN_ANOMALY":321.1014,"EPHEMERIS_TYPE":0,"CLASSIFICATION_TYPE":"U","NORAD_CAT_ID":32186,"ELEMENT_SET_NO":999,"REV_AT_EPOCH":64415,"BSTAR":0.00081126411,"MEAN_MOTION_DOT":1.004e-5,"MEAN_MOTION_DDOT":0},{"OBJECT_NAME":"FENGYUN 1C DEB","OBJECT_ID":"1999-025CUH","EPOCH":"2026-04-24T03:54:29.515968","MEAN_MOTION":13.50586172,"ECCENTRICITY":0.02937322,"INCLINATION":99.4894,"RA_OF_ASC_NODE":192.2825,"ARG_OF_PERICENTER":174.0277,"MEAN_ANOMALY":218.27,"EPHEMERIS_TYPE":0,"CLASSIFICATION_TYPE":"U","NORAD_CAT_ID":32187,"ELEMENT_SET_NO":999,"REV_AT_EPOCH":68046,"BSTAR":0.00037623495,"MEAN_MOTION_DOT":2.75e-6,"MEAN_MOTION_DDOT":0},{"OBJECT_NAME":"FENGYUN 1C DEB","OBJECT_ID":"1999-025CUM","EPOCH":"2026-04-21T09:02:43.906848","MEAN_MOTION":14.26023695,"ECCENTRICITY":0.00934858,"INCLINATION":98.6899,"RA_OF_ASC_NODE":171.4996,"ARG_OF_PERICENTER":168.9652,"MEAN_ANOMALY":191.3608,"EPHEMERIS_TYPE":0,"CLASSIFICATION_TYPE":"U","NORAD_CAT_ID":32191,"ELEMENT_SET_NO":999,"REV_AT_EPOCH":66348,"BSTAR":0.00095077224,"MEAN_MOTION_DOT":2.333e-5,"MEAN_MOTION_DDOT":0},{"OBJECT_NAME":"FENGYUN 1C DEB","OBJECT_ID":"1999-025CUN","EPOCH":"2026-04-25T02:17:20.751648","MEAN_MOTION":13.82620161,"ECCENTRICITY":0.0181783,"INCLINATION":98.6382,"RA_OF_ASC_NODE":340.1562,"ARG_OF_PERICENTER":160.4867,"MEAN_ANOMALY":200.3366,"EPHEMERIS_TYPE":0,"CLASSIFICATION_TYPE":"U","NORAD_CAT_ID":32192,"ELEMENT_SET_NO":999,"REV_AT_EPOCH":94555,"BSTAR":0.00022625861,"MEAN_MOTION_DOT":2.41e-6,"MEAN_MOTION_DDOT":0},{"OBJECT_NAME":"FENGYUN 1C DEB","OBJECT_ID":"1999-025CUR","EPOCH":"2026-04-25T06:42:44.096256","MEAN_MOTION":14.08721151,"ECCENTRICITY":0.0067584,"INCLINATION":98.7764,"RA_OF_ASC_NODE":119.1227,"ARG_OF_PERICENTER":283.2461,"MEAN_ANOMALY":76.1177,"EPHEMERIS_TYPE":0,"CLASSIFICATION_TYPE":"U","NORAD_CAT_ID":32195,"ELEMENT_SET_NO":999,"REV_AT_EPOCH":65862,"BSTAR":0.00041065,"MEAN_MOTION_DOT":6.79e-6,"MEAN_MOTION_DDOT":0}]
