FENGYUN 1C DEB          
1 32169U 99025CTP 26115.51281796  .00022158  00000+0  32304-2 0  9991
2 32169  98.5556 316.0488 0031945  63.6004 296.8476 14.75466043985860
FENGYUN 1C DEB          
1 32171U 99025CTR 26111.06786372  .00003746  00000+0  32877-2 0  9997
2 32171 102.8054  48.1929 0482718  85.5203 297.7627 13.43590359623522
FENGYUN 1C DEB          
1 32174U 99025CTU 26112.88449659  .00000386  00000+0  18710-3 0  9993
2 32174  98.5786 175.8525 0149722 227.6110 131.2315 14.18088294659640
FENGYUN 1C DEB          
1 32175U 99025CTV 26115.68358929  .00003120  00000+0  21132-2 0  9994
2 32175  98.8357 103.6400 0148182 314.7090  44.2082 13.95785964617081
FENGYUN 1C DEB          
1 32177U 99025CTX 26115.33450076  .00004811  00000+0  10435-2 0  9996
2 32177  99.0347 140.9721 0049069   1.9776 358.1606 14.57911936729841
FENGYUN 1C DEB          
1 32178U 99025CTY 26109.32018802  .00001348  00000+0  58962-3 0  9996
2 32178 100.2972 137.3385 0092516 332.7877  26.8464 14.23667142658188
FENGYUN 1C DEB          
1 32179U 99025CTZ 26115.62304384 -.00000016  00000+0  15504-4 0  9998
2 32179  98.8847 166.6699 0145440 176.2355 336.2717 14.03771626676069
FENGYUN 1C DEB          
1 32180U 99025CUA 26115.60869192  .00000037  00000+0  72414-4 0  9996
2 32180  99.5623 162.8701 0136104 217.7044 297.8899 13.82361592961171
FENGYUN 1C DEB          
1 32181U 99025CUB 26113.30161778  .00002306  00000+0  50376-3 0  9990
2 32181  99.4781 239.9320 0071762  53.6605 337.1531 14.57412384986365
FENGYUN 1C DEB          
1 32183U 99025CUD 26115.11125550  .00000770  00000+0  45325-3 0  9992
2 32183  98.6921 167.0424 0042808  43.8204 316.6351 14.10422483746440
FENGYUN 1C DEB          
1 32185U 99025CUF 26115.09922059  .00065220  00000+0  22214-2 0  9992
2 32185  98.8868 348.7095 0107082 291.0792  67.9018 15.24758215970335
FENGYUN 1C DEB          
1 32186U 99025CUG 26112.94932670  .00001004  00000+0  81126-3 0  9992
2 32186  99.5924 169.7639 0272952 217.7840 321.1014 13.76821553644150
FENGYUN 1C DEB          
1 32187U 99025CUH 26114.16284162  .00000275  00000+0  37623-3 0  9997
2 32187  99.4894 192.2825 0293732 174.0277 218.2700 13.50586172680461
FENGYUN 1C DEB          
1 32191U 99025CUM 26111.37689707  .00002333  00000+0  95077-3 0  9990
2 32191  98.6899 171.4996 0093485 168.9652 191.3608 14.26023695663483
FENGYUN 1C DEB          
1 32192U 99025CUN 26115.09537907  .00000241  00000+0  22626-3 0  9994
2 32192  98.6382 340.1562 0181783 160.4867 200.3366 13.82620161945554
FENGYUN 1C DEB          
1 32195U 99025CUR 26115.27967704  .00000679  00000+0  41065-3 0  9992
2 32195  98.7764 119.1227 0067584 283.2461  76.1177 14.08721151658628
